     3.04           N: GNSS NAV DATA    E: GALILEO          RINEX VERSION / TYPE
cnvtToRINEX 3.14.0  convertToRINEX OPR  20250615 162729 UTC PGM / RUN BY / DATE 
----------------------------------------------------------- COMMENT             
GAL    0.0000D+00  0.0000D+00  0.0000D+00                   IONOSPHERIC CORR    
GAUT  0.0000000000D+00 0.000000000D+00      0    0          TIME SYSTEM CORR    
GAGP  0.0000000000D+00 0.000000000D+00      0    0          TIME SYSTEM CORR    
                                                            END OF HEADER       
E36 2025 06 15 11 00 00-0.409315340221D-03-0.538591393706D-11 0.000000000000D+00
     0.660000000000D+02 0.128062500000D+03 0.254974906443D-08 0.106977227944D+01
     0.601448118687D-05 0.189724145457D-03 0.409223139286D-05 0.544061057663D+04
     0.396000000000D+05-0.558793544769D-07 0.153980965624D+01 0.540167093277D-07
     0.999258650791D+00 0.272406250000D+03 0.588239630313D+00-0.547487090749D-08
     0.122505102829D-09 0.258000000000D+03 0.237100000000D+04 0.000000000000D+00
     0.312000000000D+01 0.000000000000D+00 0.442378222942D-08 0.000000000000D+00
     0.403200000000D+05 0.000000000000D+00 0.000000000000D+00 0.000000000000D+00
E 6 2025 06 15 11 00 00-0.130712403916D-03-0.468958205602D-11 0.000000000000D+00
     0.660000000000D+02-0.144187500000D+03 0.279583074329D-08-0.574952046341D+00
    -0.661797821522D-05 0.287621398456D-03 0.910833477974D-05 0.544061974144D+04
     0.396000000000D+05-0.117346644402D-06-0.265508250470D+01 0.186264514923D-07
     0.958219475745D+00 0.145531250000D+03 0.131390258267D+01-0.534807991185D-08
     0.134291308058D-09 0.516000000000D+03 0.237100000000D+04 0.000000000000D+00
     0.312000000000D+01 0.000000000000D+00 0.209547579288D-08 0.349245965481D-08
     0.406540000000D+05 0.000000000000D+00 0.000000000000D+00 0.000000000000D+00
E 6 2025 06 15 11 00 00-0.130712403916D-03-0.468958205602D-11 0.000000000000D+00
     0.660000000000D+02-0.144187500000D+03 0.279583074329D-08-0.574952046341D+00
    -0.661797821522D-05 0.287621398456D-03 0.910833477974D-05 0.544061974144D+04
     0.396000000000D+05-0.117346644402D-06-0.265508250470D+01 0.186264514923D-07
     0.958219475745D+00 0.145531250000D+03 0.131390258267D+01-0.534807991185D-08
     0.134291308058D-09 0.513000000000D+03 0.237100000000D+04 0.000000000000D+00
     0.312000000000D+01 0.000000000000D+00 0.209547579288D-08 0.349245965481D-08
     0.406750000000D+05 0.000000000000D+00 0.000000000000D+00 0.000000000000D+00
E 6 2025 06 15 11 00 00-0.130714557599D-03-0.470379291073D-11 0.000000000000D+00
     0.660000000000D+02-0.144187500000D+03 0.279583074329D-08-0.574952046341D+00
    -0.661797821522D-05 0.287621398456D-03 0.910833477974D-05 0.544061974144D+04
     0.396000000000D+05-0.117346644402D-06-0.265508250470D+01 0.186264514923D-07
     0.958219475745D+00 0.145531250000D+03 0.131390258267D+01-0.534807991185D-08
     0.134291308058D-09 0.258000000000D+03 0.237100000000D+04 0.000000000000D+00
     0.312000000000D+01 0.000000000000D+00 0.209547579288D-08 0.000000000000D+00
     0.406700000000D+05 0.000000000000D+00 0.000000000000D+00 0.000000000000D+00
E 2 2025 06 15 11 00 00 0.227237527724D-03 0.278532752418D-11 0.000000000000D+00
     0.660000000000D+02-0.465625000000D+01 0.354229040776D-08 0.264976847379D+01
    -0.163912773132D-06 0.200418988243D-03 0.577606260777D-05 0.544060597610D+04
     0.396000000000D+05-0.633299350739D-07-0.552627616553D+00-0.149011611938D-07
     0.963733850355D+00 0.220968750000D+03 0.319513893996D+00-0.561380526609D-08
    -0.253224833545D-09 0.516000000000D+03 0.237100000000D+04 0.000000000000D+00
     0.312000000000D+01 0.000000000000D+00-0.232830643654D-08-0.302679836750D-08
     0.408340000000D+05 0.000000000000D+00 0.000000000000D+00 0.000000000000D+00
E36 2025 06 15 11 10 00-0.409316911828D-03-0.538591393706D-11 0.000000000000D+00
     0.670000000000D+02 0.127218750000D+03 0.254760611802D-08 0.114359916738D+01
     0.595860183239D-05 0.189698650502D-03 0.408850610256D-05 0.544061079407D+04
     0.402000000000D+05-0.633299350739D-07 0.153980631493D+01 0.465661287308D-07
     0.999258723937D+00 0.272468750000D+03 0.588797979331D+00-0.546987069921D-08
     0.126790995640D-09 0.513000000000D+03 0.237100000000D+04 0.000000000000D+00
     0.312000000000D+01 0.000000000000D+00 0.442378222942D-08 0.535510480404D-08
     0.409150000000D+05 0.000000000000D+00 0.000000000000D+00 0.000000000000D+00
E34 2025 06 15 11 10 00-0.187175115570D-03-0.227373675443D-11 0.000000000000D+00
     0.670000000000D+02 0.142031250000D+03 0.268725479209D-08-0.117584748336D+01
     0.681914389133D-05 0.280619133264D-03 0.345520675182D-05 0.544060420609D+04
     0.402000000000D+05 0.484287738800D-07 0.153792224468D+01 0.484287738800D-07
     0.999076001080D+00 0.283875000000D+03 0.212469540787D+01-0.553415909137D-08
     0.111076055335D-09 0.513000000000D+03 0.237100000000D+04 0.000000000000D+00
     0.312000000000D+01 0.000000000000D+00 0.279396772385D-08 0.395812094212D-08
     0.409150000000D+05 0.000000000000D+00 0.000000000000D+00 0.000000000000D+00
E34 2025 06 15 11 10 00-0.187175115570D-03-0.227373675443D-11 0.000000000000D+00
     0.670000000000D+02 0.142031250000D+03 0.268725479209D-08-0.117584748336D+01
     0.681914389133D-05 0.280619133264D-03 0.345520675182D-05 0.544060420609D+04
     0.402000000000D+05 0.484287738800D-07 0.153792224468D+01 0.484287738800D-07
     0.999076001080D+00 0.283875000000D+03 0.212469540787D+01-0.553415909137D-08
     0.111076055335D-09 0.516000000000D+03 0.237100000000D+04 0.000000000000D+00
     0.312000000000D+01 0.000000000000D+00 0.279396772385D-08 0.395812094212D-08
     0.409240000000D+05 0.000000000000D+00 0.000000000000D+00 0.000000000000D+00
E36 2025 06 15 11 10 00-0.409316911828D-03-0.538591393706D-11 0.000000000000D+00
     0.670000000000D+02 0.127218750000D+03 0.254760611802D-08 0.114359916738D+01
     0.595860183239D-05 0.189698650502D-03 0.408850610256D-05 0.544061079407D+04
     0.402000000000D+05-0.633299350739D-07 0.153980631493D+01 0.465661287308D-07
     0.999258723937D+00 0.272468750000D+03 0.588797979331D+00-0.546987069921D-08
     0.126790995640D-09 0.516000000000D+03 0.237100000000D+04 0.000000000000D+00
     0.312000000000D+01 0.000000000000D+00 0.442378222942D-08 0.535510480404D-08
     0.409240000000D+05 0.000000000000D+00 0.000000000000D+00 0.000000000000D+00
E 6 2025 06 15 11 10 00-0.130715139676D-03-0.468958205602D-11 0.000000000000D+00
     0.670000000000D+02-0.144500000000D+03 0.280297389797D-08-0.500476932085D+00
    -0.662542879581D-05 0.287451664917D-03 0.906363129616D-05 0.544061940193D+04
     0.402000000000D+05-0.126659870148D-06-0.265508564558D+01-0.372529029846D-08
     0.958219630814D+00 0.146906250000D+03 0.131381217140D+01-0.534593696545D-08
     0.121076471892D-09 0.513000000000D+03 0.237100000000D+04 0.000000000000D+00
     0.312000000000D+01 0.000000000000D+00 0.209547579288D-08 0.349245965481D-08
     0.409450000000D+05 0.000000000000D+00 0.000000000000D+00 0.000000000000D+00
E36 2025 06 15 11 10 00-0.409318541642D-03-0.540012479178D-11 0.000000000000D+00
     0.670000000000D+02 0.127218750000D+03 0.254760611802D-08 0.114359916738D+01
     0.595860183239D-05 0.189698650502D-03 0.408850610256D-05 0.544061079407D+04
     0.402000000000D+05-0.633299350739D-07 0.153980631493D+01 0.465661287308D-07
     0.999258723937D+00 0.272468750000D+03 0.588797979331D+00-0.546987069921D-08
     0.126790995640D-09 0.258000000000D+03 0.237100000000D+04 0.000000000000D+00
     0.312000000000D+01 0.000000000000D+00 0.442378222942D-08 0.000000000000D+00
     0.410700000000D+05 0.000000000000D+00 0.000000000000D+00 0.000000000000D+00
E 5 2025 06 15 11 10 00 0.486045889556D-02 0.305533376377D-11 0.000000000000D+00
     0.670000000000D+02-0.129437500000D+03 0.271011288708D-08 0.168265950758D+00
    -0.600330531597D-05 0.275212689303D-03 0.947527587414D-05 0.544062578392D+04
     0.402000000000D+05 0.242143869400D-07-0.265679004462D+01 0.149011611938D-07
     0.964948092841D+00 0.138750000000D+03-0.521137732896D+00-0.539165315542D-08
     0.136791412197D-09 0.513000000000D+03 0.237100000000D+04 0.000000000000D+00
     0.312000000000D+01 0.000000000000D+00 0.232830643654D-08 0.302679836750D-08
     0.412750000000D+05 0.000000000000D+00 0.000000000000D+00 0.000000000000D+00
E 5 2025 06 15 11 10 00 0.486045889556D-02 0.305533376377D-11 0.000000000000D+00
     0.670000000000D+02-0.129437500000D+03 0.271011288708D-08 0.168265950758D+00
    -0.600330531597D-05 0.275212689303D-03 0.947527587414D-05 0.544062578392D+04
     0.402000000000D+05 0.242143869400D-07-0.265679004462D+01 0.149011611938D-07
     0.964948092841D+00 0.138750000000D+03-0.521137732896D+00-0.539165315542D-08
     0.136791412197D-09 0.516000000000D+03 0.237100000000D+04 0.000000000000D+00
     0.312000000000D+01 0.000000000000D+00 0.232830643654D-08 0.302679836750D-08
     0.412840000000D+05 0.000000000000D+00 0.000000000000D+00 0.000000000000D+00
E 2 2025 06 15 11 10 00 0.227239332162D-03 0.278532752418D-11 0.000000000000D+00
     0.670000000000D+02-0.381250000000D+01 0.353836167268D-08 0.272428027803D+01
    -0.145286321640D-06 0.200305832550D-03 0.576488673687D-05 0.544060620308D+04
     0.402000000000D+05-0.633299350739D-07-0.552630979801D+00-0.260770320892D-07
     0.963733654324D+00 0.221437500000D+03 0.319388119614D+00-0.562059126304D-08
    -0.250010413937D-09 0.513000000000D+03 0.237100000000D+04 0.000000000000D+00
     0.312000000000D+01 0.000000000000D+00-0.232830643654D-08-0.302679836750D-08
     0.413350000000D+05 0.000000000000D+00 0.000000000000D+00 0.000000000000D+00
